[
  {"zip_code": "71460", "city": "AMEUGNY", "sector_name": "CC Clunisois"},
  {"zip_code": "71250", "city": "BERGESSERIN", "sector_name": "CC Clunisois"},
  {"zip_code": "71960", "city": "BERZE LE CHATEL", "sector_name": "CC Clunisois"},
  {"zip_code": "71250", "city": "BLANOT", "sector_name": "CC Clunisois"},
  {"zip_code": "71460", "city": "BONNAY", "sector_name": "CC Clunisois"},
  {"zip_code": "71250", "city": "BRAY", "sector_name": "CC Clunisois"},
  {"zip_code": "71250", "city": "BUFFIERES", "sector_name": "CC Clunisois"},
  {"zip_code": "71460", "city": "BURZY", "sector_name": "CC Clunisois"},
  {"zip_code": "71250", "city": "CHÂTEAU", "sector_name": "CC Clunisois"},
  {"zip_code": "71250", "city": "CHERIZET", "sector_name": "CC Clunisois"},
  {"zip_code": "71220", "city": "CHEVAGNY SUR GUYE", "sector_name": "CC Clunisois"},
  {"zip_code": "71220", "city": "CHIDDES", "sector_name": "CC Clunisois"},
  {"zip_code": "71460", "city": "CHISSEY LÈS MÂCON", "sector_name": "CC Clunisois"},
  {"zip_code": "71250", "city": "CLUNY", "sector_name": "CC Clunisois"},
  {"zip_code": "71250", "city": "CORTAMBERT", "sector_name": "CC Clunisois"},
  {"zip_code": "71460", "city": "CORTEVAIX", "sector_name": "CC Clunisois"},
  {"zip_code": "71250", "city": "CURTIL-SOUS-BUFFIÈRES", "sector_name": "CC Clunisois"},
  {"zip_code": "71250", "city": "DONZY-LE-PERTUIS", "sector_name": "CC Clunisois"},
  {"zip_code": "71250", "city": "FLAGY", "sector_name": "CC Clunisois"},
  {"zip_code": "71250", "city": "JALOGNY", "sector_name": "CC Clunisois"},
  {"zip_code": "71460", "city": "JONCY", "sector_name": "CC Clunisois"},
  {"zip_code": "71220", "city": "LA GUICHE", "sector_name": "CC Clunisois"},
  {"zip_code": "71250", "city": "LA VINEUSE SUR FREGANDE", "sector_name": "CC Clunisois"},
  {"zip_code": "71250", "city": "LOURNAND", "sector_name": "CC Clunisois"},
  {"zip_code": "71250", "city": "MASSILLY", "sector_name": "CC Clunisois"},
  {"zip_code": "71250", "city": "MAZILLE", "sector_name": "CC Clunisois"},
  {"zip_code": "71220", "city": "PASSY", "sector_name": "CC Clunisois"},
  {"zip_code": "71220", "city": "PRESSY-SOUS-DONDIN", "sector_name": "CC Clunisois"},
  {"zip_code": "71250", "city": "SAILLY", "sector_name": "CC Clunisois"},
  {"zip_code": "71220", "city": "SAINT ANDRE LE DESERT", "sector_name": "CC Clunisois"},
  {"zip_code": "71460", "city": "SAINT CLÉMENT SUR GUYE", "sector_name": "CC Clunisois"},
  {"zip_code": "71460", "city": "SAINT HURUGE", "sector_name": "CC Clunisois"},
  {"zip_code": "71460", "city": "SAINT MARCELIN DE CRAY", "sector_name": "CC Clunisois"},
  {"zip_code": "71220", "city": "SAINT MARTIN DE SALENCEY", "sector_name": "CC Clunisois"},
  {"zip_code": "71460", "city": "SAINT MARTIN LA PATROUILLE", "sector_name": "CC Clunisois"},
  {"zip_code": "71250", "city": "SAINT VINCENT DES PRES", "sector_name": "CC Clunisois"},
  {"zip_code": "71460", "city": "SAINT YTHAIRE", "sector_name": "CC Clunisois"},
  {"zip_code": "71250", "city": "SAINTE CÉCILE", "sector_name": "CC Clunisois"},
  {"zip_code": "71250", "city": "SALORNAY SUR GUYE", "sector_name": "CC Clunisois"},
  {"zip_code": "71250", "city": "SIGY LE CHÂTEL", "sector_name": "CC Clunisois"},
  {"zip_code": "71220", "city": "SIVIGNON", "sector_name": "CC Clunisois"},
  {"zip_code": "71250", "city": "TAIZÉ", "sector_name": "CC Clunisois"},
  {"zip_code": "71520", "city": "BOURGVILAIN", "sector_name": "CC St Cyr Mère Boitier entre Charolais et Mâconnais"},
  {"zip_code": "71520", "city": "DOMPIERRE LES ORMES", "sector_name": "CC St Cyr Mère Boitier entre Charolais et Mâconnais"},
  {"zip_code": "71520", "city": "GERMOLLES SUR GROSNE", "sector_name": "CC St Cyr Mère Boitier entre Charolais et Mâconnais"},
  {"zip_code": "71520", "city": "LA CHAPELLE DU MONT DE France", "sector_name": "CC St Cyr Mère Boitier entre Charolais et Mâconnais"},
  {"zip_code": "71520", "city": "MATOUR", "sector_name": "CC St Cyr Mère Boitier entre Charolais et Mâconnais"},
  {"zip_code": "71520", "city": "MONTMELARD", "sector_name": "CC St Cyr Mère Boitier entre Charolais et Mâconnais"},
  {"zip_code": "71520", "city": "NAVOUR SUR GROSNE", "sector_name": "CC St Cyr Mère Boitier entre Charolais et Mâconnais"},
  {"zip_code": "71960", "city": "PIERRECLOS", "sector_name": "CC St Cyr Mère Boitier entre Charolais et Mâconnais"},
  {"zip_code": "71520", "city": "SAINT-LÉGER-SOUS-LA-BUSSIERE", "sector_name": "CC St Cyr Mère Boitier entre Charolais et Mâconnais"},
  {"zip_code": "71520", "city": "SAINT-PIERRE-LE-VIEUX", "sector_name": "CC St Cyr Mère Boitier entre Charolais et Mâconnais"},
  {"zip_code": "71520", "city": "SAINT POINT", "sector_name": "CC St Cyr Mère Boitier entre Charolais et Mâconnais"},
  {"zip_code": "71960", "city": "SERRIÈRES", "sector_name": "CC St Cyr Mère Boitier entre Charolais et Mâconnais"},
  {"zip_code": "71520", "city": "TRAMAYES", "sector_name": "CC St Cyr Mère Boitier entre Charolais et Mâconnais"},
  {"zip_code": "71520", "city": "TRAMBLY", "sector_name": "CC St Cyr Mère Boitier entre Charolais et Mâconnais"},
  {"zip_code": "71520", "city": "TRIVY", "sector_name": "CC St Cyr Mère Boitier entre Charolais et Mâconnais"},
  {"zip_code": "71220", "city": "VEROSVRES", "sector_name": "CC St Cyr Mère Boitier entre Charolais et Mâconnais"},
  {"zip_code": "71260", "city": "BISSY-LA-MÂCONNAISE", "sector_name": "CC Mâconnais Tournugeois"},
  {"zip_code": "71260", "city": "BURGY", "sector_name": "CC Mâconnais Tournugeois"},
  {"zip_code": "71700", "city": "CHARDONNAY", "sector_name": "CC Mâconnais Tournugeois"},
  {"zip_code": "71260", "city": "CLESSE", "sector_name": "CC Mâconnais Tournugeois"},
  {"zip_code": "71260", "city": "CRUZILLE", "sector_name": "CC Mâconnais Tournugeois"},
  {"zip_code": "71700", "city": "FARGES LES MÂCON", "sector_name": "CC Mâconnais Tournugeois"},
  {"zip_code": "71260", "city": "FLEURVILLE", "sector_name": "CC Mâconnais Tournugeois"},
  {"zip_code": "71700", "city": "GREVILLY", "sector_name": "CC Mâconnais Tournugeois"},
  {"zip_code": "71700", "city": "LA CHAPELLE SOUS BRANCION", "sector_name": "CC Mâconnais Tournugeois"},
  {"zip_code": "71290", "city": "LA TRUCHERE", "sector_name": "CC Mâconnais Tournugeois"},
  {"zip_code": "71700", "city": "LACROST", "sector_name": "CC Mâconnais Tournugeois"},
  {"zip_code": "71700", "city": "LE VILLARS", "sector_name": "CC Mâconnais Tournugeois"},
  {"zip_code": "71260", "city": "LUGNY", "sector_name": "CC Mâconnais Tournugeois"},
  {"zip_code": "71700", "city": "MARTAILLY-LÈS-BRANCION", "sector_name": "CC Mâconnais Tournugeois"},
  {"zip_code": "71260", "city": "MONTBELLET", "sector_name": "CC Mâconnais Tournugeois"},
  {"zip_code": "71700", "city": "OZENAY", "sector_name": "CC Mâconnais Tournugeois"},
  {"zip_code": "71700", "city": "PLOTTES", "sector_name": "CC Mâconnais Tournugeois"},
  {"zip_code": "71290", "city": "PRETY", "sector_name": "CC Mâconnais Tournugeois"},
  {"zip_code": "71700", "city": "ROYER", "sector_name": "CC Mâconnais Tournugeois"},
  {"zip_code": "71260", "city": "SAINT ALBAIN", "sector_name": "CC Mâconnais Tournugeois"},
  {"zip_code": "71260", "city": "SAINT GENGOUX DE SCISSE", "sector_name": "CC Mâconnais Tournugeois"},
  {"zip_code": "71700", "city": "TOURNUS", "sector_name": "CC Mâconnais Tournugeois"},
  {"zip_code": "71700", "city": "UCHIZY", "sector_name": "CC Mâconnais Tournugeois"},
  {"zip_code": "71260", "city": "VIRE", "sector_name": "CC Mâconnais Tournugeois"},
  {"zip_code": "71011", "city": "MÂCON CEDEX", "sector_name": "CA Maconnais Tournugeois Agglomération"},
  {"zip_code": "71260", "city": "AZE", "sector_name": "CA Maconnais Tournugeois Agglomération"},
  {"zip_code": "71960", "city": "BERZE LA VILLE", "sector_name": "CA Maconnais Tournugeois Agglomération"},
  {"zip_code": "71960", "city": "BUSSIERES", "sector_name": "CA Maconnais Tournugeois Agglomération"},
  {"zip_code": "71570", "city": "CHAINTRE", "sector_name": "CA Maconnais Tournugeois Agglomération"},
  {"zip_code": "71570", "city": "CHÂNES", "sector_name": "CA Maconnais Tournugeois Agglomération"},
  {"zip_code": "71260", "city": "CHARBONNIRES", "sector_name": "CA Maconnais Tournugeois Agglomération"},
  {"zip_code": "71012", "city": "CHARNAY-LÈS-MÂCON", "sector_name": "CA Maconnais Tournugeois Agglomération"},
  {"zip_code": "71570", "city": "CHASSELAS", "sector_name": "CA Maconnais Tournugeois Agglomération"},
  {"zip_code": "71960", "city": "CHEVAGNY LES CHEVRIERES", "sector_name": "CA Maconnais Tournugeois Agglomération"},
  {"zip_code": "71680", "city": "CRÊCHES-SUR-SAÔNE", "sector_name": "CA Maconnais Tournugeois Agglomération"},
  {"zip_code": "71960", "city": "DAVAYE", "sector_name": "CA Maconnais Tournugeois Agglomération"},
  {"zip_code": "71960", "city": "FUISSE", "sector_name": "CA Maconnais Tournugeois Agglomération"},
  {"zip_code": "71870", "city": "HURIGNY", "sector_name": "CA Maconnais Tournugeois Agglomération"},
  {"zip_code": "71960", "city": "IGE", "sector_name": "CA Maconnais Tournugeois Agglomération"},
  {"zip_code": "71570", "city": "LA CHAPELLE-DE-GUINCHAY", "sector_name": "CA Maconnais Tournugeois Agglomération"},
  {"zip_code": "71960", "city": "LA ROCHE-VINEUSE", "sector_name": "CA Maconnais Tournugeois Agglomération"},
  {"zip_code": "71260", "city": "LA SALLE", "sector_name": "CA Maconnais Tournugeois Agglomération"},
  {"zip_code": "71870", "city": "LAIZE", "sector_name": "CA Maconnais Tournugeois Agglomération"},
  {"zip_code": "71570", "city": "LEYNES", "sector_name": "CA Maconnais Tournugeois Agglomération"},
  {"zip_code": "71018", "city": "MÂCON CEDEX", "sector_name": "CA Maconnais Tournugeois Agglomération"},
  {"zip_code": "71960", "city": "MILLY-LAMARTINE", "sector_name": "CA Maconnais Tournugeois Agglomération"},
  {"zip_code": "71260", "city": "PERONNE", "sector_name": "CA Maconnais Tournugeois Agglomération"},
  {"zip_code": "71960", "city": "PRISSE", "sector_name": "CA Maconnais Tournugeois Agglomération"},
  {"zip_code": "71570", "city": "PRUZILLY", "sector_name": "CA Maconnais Tournugeois Agglomération"},
  {"zip_code": "71570", "city": "ROMANÈCHE-THORINS", "sector_name": "CA Maconnais Tournugeois Agglomération"},
  {"zip_code": "71570", "city": "SAINT-AMOUR-BELLEVUE", "sector_name": "CA Maconnais Tournugeois Agglomération"},
  {"zip_code": "71750", "city": "SAINT-LAURENT-SUR-SAÔNE", "sector_name": "CA Maconnais Tournugeois Agglomération"},
  {"zip_code": "71118", "city": "SAINT-MARTIN-DE-BELLE-ROCHE", "sector_name": "CA Maconnais Tournugeois Agglomération"},
  {"zip_code": "71260", "city": "SAINT-MAURICE-DE-SATONNAY", "sector_name": "CA Maconnais Tournugeois Agglomération"},
  {"zip_code": "71570", "city": "SAINT-SYMPHORIEN-D'ANCELLES", "sector_name": "CA Maconnais Tournugeois Agglomération"},
  {"zip_code": "71570", "city": "SAINT-VÉRAND", "sector_name": "CA Maconnais Tournugeois Agglomération"},
  {"zip_code": "71000", "city": "SANCE", "sector_name": "CA Maconnais Tournugeois Agglomération"},
  {"zip_code": "71260", "city": "SENOZAN", "sector_name": "CA Maconnais Tournugeois Agglomération"},
  {"zip_code": "71960", "city": "SOLOGNY", "sector_name": "CA Maconnais Tournugeois Agglomération"},
  {"zip_code": "71960", "city": "SOLUTRE POUILLY", "sector_name": "CA Maconnais Tournugeois Agglomération"},
  {"zip_code": "71000", "city": "VARENNES-LÈS-MACON", "sector_name": "CA Maconnais Tournugeois Agglomération"},
  {"zip_code": "71960", "city": "VERGISSON", "sector_name": "CA Maconnais Tournugeois Agglomération"},
  {"zip_code": "71960", "city": "VERZÉ", "sector_name": "CA Maconnais Tournugeois Agglomération"},
  {"zip_code": "71680", "city": "VINZELLES", "sector_name": "CA Maconnais Tournugeois Agglomération"}
]